NORAD_CAT_ID,OBJECT_NAME,OBJECT_TYPE,EPOCH,MEAN_MOTION,ECCENTRICITY,INCLINATION,RA_OF_ASC_NODE,ARG_OF_PERICENTER,MEAN_ANOMALY,BSTAR,MEAN_MOTION_DOT,MEAN_MOTION_DDOT,TLE_LINE0,TLE_LINE1,TLE_LINE2,SEMIMAJOR_AXIS,PERIOD,APOGEE,PERIGEE,DECAYED
52462.0,STARLINK-3903,PAYLOAD,2022-05-13 14:00:01,15.79909278,0.0001839,53.2176,230.8743,25.5735,309.8727,-0.0051582,-0.00880746,0.0,0 STARLINK-3903,1 52462U 22049M   22133.58334491 -.00880746  00000-0 -51582-2 0  9992,2 52462  53.2176 230.8743 0001839  25.5735 309.8727 15.79909278  1307,6708.834,91.144,331.93300000000005,329.466,0.0
52462.0,STARLINK-3903,PAYLOAD,2022-05-13 16:00:00,15.79667948,0.0001868,53.2167,230.4574,31.2771,58.4318,-0.0044762,-0.0076618,0.0,0 STARLINK-3903,1 52462U 22049M   22133.66667824 -.00766180  00000-0 -44762-2 0  9997,2 52462  53.2167 230.4574 0001868  31.2771  58.4318 15.79667948  1310,6709.518,91.158,332.636,330.129,0.0
52462.0,STARLINK-3903,PAYLOAD,2022-05-14 06:00:00,15.78648446,0.0001831,53.2174,227.5432,32.1249,135.7704,-0.0054258999999999,-0.00875053,0.0,0 STARLINK-3903,1 52462U 22049M   22134.25001157 -.00875053  00000-0 -54259-2 0  9996,2 52462  53.2174 227.5432 0001831  32.1249 135.7704 15.78648446  1407,6712.406,91.217,335.5,333.042,0.0
52462.0,STARLINK-3903,PAYLOAD,2022-05-14 14:00:01,15.78020621,0.0002087,53.2174,225.8833,24.4987,238.4847,-0.0056092,-0.00878902,0.0,0 STARLINK-3903,1 52462U 22049M   22134.58334491 -.00878902  00000-0 -56092-2 0  9995,2 52462  53.2174 225.8833 0002087  24.4987 238.4847 15.78020621  1307,6714.186,91.254,337.4530000000001,334.65,0.0
52462.0,STARLINK-3903,PAYLOAD,2022-05-14 22:00:00,15.77391145,0.0001363,53.2175,224.2217,36.0068,321.3103,-0.0057637,-0.00877675,0.0,0 STARLINK-3903,1 52462U 22049M   22134.91667824 -.00877675  00000-0 -57637-2 0  9993,2 52462  53.2175 224.2217 0001363  36.0068 321.3103 15.77391145  1300,6715.972,91.29,338.7530000000001,336.922,0.0
52462.0,STARLINK-3903,PAYLOAD,2022-05-15 06:00:00,15.76759233,0.0001794,53.2177,222.5616,28.5525,62.3431,-0.0058908,-0.00872664,0.0,0 STARLINK-3903,1 52462U 22049M   22135.25001157 -.00872664  00000-0 -58908-2 0  9997,2 52462  53.2177 222.5616 0001794  28.5525  62.3431 15.76759233  1567,6717.767,91.327,340.837,338.427,0.0
52462.0,STARLINK-3903,PAYLOAD,2022-05-15 14:00:01,15.7613122,0.0001934,53.2176,220.9062,30.5718,153.2087,-0.0060771,-0.00875205,0.0,0 STARLINK-3903,1 52462U 22049M   22135.58335648 -.00875205  00000-0 -60771-2 0  9993,2 52462  53.2176 220.9062 0001934  30.5718 153.2087 15.76131220  1305,6719.551,91.363,342.716,340.117,0.0
52462.0,STARLINK-3903,PAYLOAD,2022-05-15 22:00:00,15.75504132,0.0001551999999999,53.2174,219.2491,36.5037,239.2758,-0.0062788,-0.00878938,0.0,0 STARLINK-3903,1 52462U 22049M   22135.91667824 -.00878938  00000-0 -62788-2 0  9990,2 52462  53.2174 219.2491 0001552  36.5037 239.2758 15.75504132  1301,6721.334,91.399,344.242,342.156,0.0
52462.0,STARLINK-3903,PAYLOAD,2022-05-16 06:00:02,15.74872358,0.0001845,53.2175,217.5938,24.0167,343.1379,-0.0064151,-0.00874015,0.0,0 STARLINK-3903,1 52462U 22049M   22136.25002315 -.00874015  00000-0 -64151-2 0  9994,2 52462  53.2175 217.5938 0001845  24.0167 343.1379 15.74872358  1727,6723.130999999999,91.436,346.237,343.756,0.0
52462.0,STARLINK-3903,PAYLOAD,2022-05-16 14:00:01,15.74244311,0.0002224,53.2175,215.9432,19.9455,77.6941,-0.0066168999999999,-0.00876905,0.0,0 STARLINK-3903,1 52462U 22049M   22136.58334491 -.00876905  00000-0 -66169-2 0  9994,2 52462  53.2175 215.9432 0002224  19.9455  77.6941 15.74244311  1303,6724.919,91.472,348.28,345.289,0.0
52462.0,STARLINK-3903,PAYLOAD,2022-05-16 22:00:00,15.73442134,0.0001589,53.2176,214.2903,38.5982,148.86700000000005,-0.0025361,-0.00345901,0.0,0 STARLINK-3903,1 52462U 22049M   22136.91667824 -.00345901  00000-0 -25361-2 0  9996,2 52462  53.2176 214.2903 0001589  38.5982 148.8670 15.73442134  1823,6727.205,91.519,350.139,348.001,0.0
52462.0,STARLINK-3903,PAYLOAD,2022-05-17 06:00:00,15.73206388,0.0001513,53.2178,212.64,45.4312,231.0967,-1.766e-05,-3.099e-05,0.0,0 STARLINK-3903,1 52462U 22049M   22137.25001157 -.00003099  00000-0 -17660-4 0  9999,2 52462  53.2178 212.6400 0001513  45.4312 231.0967 15.73206388  1878,6727.877,91.533,350.76,348.724,0.0
52462.0,STARLINK-3903,PAYLOAD,2022-05-17 12:00:00,15.73280346,0.0001604,53.2127,211.4004,31.3147,222.0788,-0.0008089,-0.00113024,0.0,0 STARLINK-3903,1 52462U 22049M   22137.50001157 -.00113024  00000-0 -80890-3 0  9991,2 52462  53.2127 211.4004 0001604  31.3147 222.0788 15.73280346  1912,6727.666,91.529,350.61,348.452,0.0
52462.0,STARLINK-3903,PAYLOAD,2022-05-17 14:00:01,15.732315300000002,0.0001612,53.2134,210.9882,30.338,335.3825,-0.00028293,-0.00040193,0.0,0 STARLINK-3903,1 52462U 22049M   22137.58335648 -.00040193  00000-0 -28293-3 0  9999,2 52462  53.2134 210.9882 0001612  30.3380 335.3825 15.73231530  1309,6727.805,91.531,350.755,348.586,0.0
52462.0,STARLINK-3903,PAYLOAD,2022-05-17 20:00:01,15.73228569,0.0001564999999999,53.2137,209.7499,29.2752,313.1238,0.00032375,0.00045116,0.0,0 STARLINK-3903,1 52462U 22049M   22137.83334491  .00045116  00000-0  32375-3 0  9996,2 52462  53.2137 209.7499 0001565  29.2752 313.1238 15.73228569  1972,6727.814,91.532,350.732,348.626,0.0
52462.0,STARLINK-3903,PAYLOAD,2022-05-17 22:00:01,15.73232273,0.0001463,53.2142,209.3368,30.0236,64.683,0.00044155,0.00061893,0.0,0 STARLINK-3903,1 52462U 22049M   22137.91668981  .00061893  00000-0  44155-3 0  9998,2 52462  53.2142 209.3368 0001463  30.0236  64.6830 15.73232273  1303,6727.803000000001,91.531,350.652,348.684,0.0
52462.0,STARLINK-3903,PAYLOAD,2022-05-18 12:00:00,15.73260417,0.0001816,53.2158,206.4513,35.899,124.5031,-0.00036398,-0.00051526,0.0,0 STARLINK-3903,1 52462U 22049M   22138.50001157 -.00051526  00000-0 -36398-3 0  9994,2 52462  53.2158 206.4513 0001816  35.8990 124.5031 15.73260417  2077,6727.723000000001,91.53,350.81,348.366,0.0
52462.0,STARLINK-3903,PAYLOAD,2022-05-18 14:00:01,15.73261602,0.0001862,53.216,206.0393,35.4869,237.1617,-0.00053579,-0.00075348,0.0,0 STARLINK-3903,1 52462U 22049M   22138.58334491 -.00075348  00000-0 -53579-3 0  9990,2 52462  53.2160 206.0393 0001862  35.4869 237.1617 15.73261602  1307,6727.72,91.53,350.837,348.332,0.0
52462.0,STARLINK-3903,PAYLOAD,2022-05-18 20:00:01,15.7322958,0.0001868,53.2157,204.8008,37.615,211.7604,-0.0012087,-0.00167153,0.0,0 STARLINK-3903,1 52462U 22049M   22138.83334491 -.00167153  00000-0 -12087-2 0  9992,2 52462  53.2157 204.8008 0001868  37.6150 211.7604 15.73229580  2129,6727.811,91.531,350.93300000000005,348.4190000000001,0.0
52462.0,STARLINK-3903,PAYLOAD,2022-05-18 22:00:00,15.73172107,0.0001778,53.2158,204.3879,39.8486,321.7696,-0.00065462,-0.00091397,0.0,0 STARLINK-3903,1 52462U 22049M   22138.91667824 -.00091397  00000-0 -65462-3 0  9992,2 52462  53.2158 204.3879 0001778  39.8486 321.7696 15.73172107  1312,6727.975,91.535,351.036,348.64300000000014,0.0
52462.0,STARLINK-3903,PAYLOAD,2022-05-19 06:00:00,15.73205939,0.0001935,53.2177,202.7429,43.6298,46.5039,-1.809e-05,-3.16e-05,0.0,0 STARLINK-3903,1 52462U 22049M   22139.25001157 -.00003160  00000-0 -18090-4 0  9998,2 52462  53.2177 202.7429 0001935  43.6298  46.5039 15.73205939  2195,6727.878000000002,91.533,351.045,348.441,0.0
52462.0,STARLINK-3903,PAYLOAD,2022-05-19 14:00:01,15.73144349,0.0001969,53.2154,201.091,30.2952,149.04,0.00082711,0.0011680999999999,0.0,0 STARLINK-3903,1 52462U 22049M   22139.58335648  .00116810  00000-0  82711-3 0  9994,2 52462  53.2154 201.0910 0001969  30.2952 149.0400 15.73144349  1303,6728.054,91.536,351.244,348.594,0.0
52462.0,STARLINK-3903,PAYLOAD,2022-05-19 22:00:00,15.73247287,0.000182,53.2151,199.4397,34.9712,233.2235,0.00016997,0.00023349,0.0,0 STARLINK-3903,1 52462U 22049M   22139.91667824  .00023349  00000-0  16997-3 0  9992,2 52462  53.2151 199.4397 0001820  34.9712 233.2235 15.73247287  2296,6727.76,91.53,350.85,348.401,0.0
52462.0,STARLINK-3903,PAYLOAD,2022-05-20 14:00:01,15.73235625,0.0002023,53.2154,196.1424,30.8471,55.3384,-0.00040051,-0.00056544,0.0,0 STARLINK-3903,1 52462U 22049M   22140.58334491 -.00056544  00000-0 -40051-3 0  9991,2 52462  53.2154 196.1424 0002023  30.8471  55.3384 15.73235625  2401,6727.794,91.531,351.02,348.298,0.0
52462.0,STARLINK-3903,PAYLOAD,2022-05-20 22:00:00,15.73169674,0.0001923,53.2157,194.4908,31.496,143.6468,-0.00029075,-0.00041176,0.0,0 STARLINK-3903,1 52462U 22049M   22140.91667824 -.00041176  00000-0 -29075-3 0  9995,2 52462  53.2157 194.4908 0001923  31.4960 143.6468 15.73169674  1302,6727.982,91.535,351.14,348.55300000000005,0.0
52462.0,STARLINK-3903,PAYLOAD,2022-05-21 06:00:00,15.73381917,0.0001686,53.2167,192.8426,34.7391,229.2864,-0.0040458,-0.0053781,0.0,0 STARLINK-3903,1 52462U 22049M   22141.25001157 -.00537810  00000-0 -40458-2 0  9996,2 52462  53.2167 192.8426 0001686  34.7391 229.2864 15.73381917  2500,6727.377,91.523,350.376,348.107,0.0
52462.0,STARLINK-3903,PAYLOAD,2022-05-21 14:00:01,15.73167938,0.0002221,53.2152,191.1938,29.86,323.1702,0.00060275,0.00084717,0.0,0 STARLINK-3903,1 52462U 22049M   22141.58335648  .00084717  00000-0  60275-3 0  9998,2 52462  53.2152 191.1938 0002221  29.8600 323.1702 15.73167938  2564,6727.986999999999,91.535,351.346,348.357,0.0
52462.0,STARLINK-3903,PAYLOAD,2022-05-21 20:00:01,15.73236909,0.0001986,53.2151,189.9551,31.2057,298.4512,-0.00042039,-0.00059304,0.0,0 STARLINK-3903,1 52462U 22049M   22141.83334491 -.00059304  00000-0 -42039-3 0  9995,2 52462  53.2151 189.9551 0001986  31.2057 298.4512 15.73236909  2602,6727.79,91.531,350.991,348.319,0.0
52462.0,STARLINK-3903,PAYLOAD,2022-05-21 22:00:00,15.73184099,0.0001874,53.2152,189.5423,30.5048,51.40600000000001,0.00032404,0.00045071,0.0,0 STARLINK-3903,1 52462U 22049M   22141.91667824  .00045071  00000-0  32404-3 0  9992,2 52462  53.2152 189.5423 0001874  30.5048  51.4060 15.73184099  1308,6727.941,91.534,351.066,348.545,0.0
